start=new Date('2023-01-13T00:00:00.000Z').valueOf();
sats=[{"RA_OF_ASC_NODE":"264.3062","DECAY_DATE":null,"BSTAR":"0.00023693000000","RCS_SIZE":"MEDIUM","EPHEMERIS_TYPE":"0","TLE_LINE1":"1 52554U 22051X   23012.99163233  .00003486  00000-0  23693-3 0  9992","REF_FRAME":"TEME","MEAN_MOTION_DOT":"0.00003486","SITE":"AFWTR","ELEMENT_SET_NO":"999","TLE_LINE2":"2 52554  53.2158 264.3062 0002358  22.8309 337.2788 15.08854718 37579","MEAN_MOTION_DDOT":"0.0000000000000","APOAPSIS":"541.332","MEAN_ANOMALY":"337.2788","PERIOD":"95.437","FILE":"3742128","NORAD_CAT_ID":"52554","OBJECT_TYPE":"PAYLOAD","CENTER_NAME":"EARTH","ARG_OF_PERICENTER":"22.8309","COUNTRY_CODE":"US","OBJECT_NAME":"STARLINK-3770","GP_ID":"222864837","PERIAPSIS":"538.069","SEMIMAJOR_AXIS":"6917.835","MEAN_MOTION":"15.08854718","ECCENTRICITY":"0.00023580","TIME_SYSTEM":"UTC","OBJECT_ID":"2022-051X","EPOCH":"2023-01-12T23:47:57.033312","MEAN_ELEMENT_THEORY":"SGP4","REV_AT_EPOCH":"3757","LAUNCH_DATE":"2022-05-13","INCLINATION":"53.2158","CLASSIFICATION_TYPE":"U"},{"GP_ID":"222889865","MEAN_MOTION":"15.08831240","SEMIMAJOR_AXIS":"6917.907","PERIAPSIS":"538.176","CENTER_NAME":"EARTH","OBJECT_TYPE":"PAYLOAD","NORAD_CAT_ID":"52555","FILE":"3742227","OBJECT_NAME":"STARLINK-3949","COUNTRY_CODE":"US","ARG_OF_PERICENTER":"36.8072","CLASSIFICATION_TYPE":"U","REV_AT_EPOCH":"3757","LAUNCH_DATE":"2022-05-13","INCLINATION":"53.2153","ECCENTRICITY":"0.00023080","TIME_SYSTEM":"UTC","MEAN_ELEMENT_THEORY":"SGP4","EPOCH":"2023-01-12T22:42:24.990048","OBJECT_ID":"2022-051Y","EPHEMERIS_TYPE":"0","RCS_SIZE":"LARGE","TLE_LINE1":"1 52555U 22051Y   23012.94612257  .00000265  00000-0  34803-4 0  9991","RA_OF_ASC_NODE":"259.5128","BSTAR":"0.00003480300000","DECAY_DATE":null,"TLE_LINE2":"2 52555  53.2153 259.5128 0002308  36.8072 323.3078 15.08831240 37574","APOAPSIS":"541.369","MEAN_ANOMALY":"323.3078","PERIOD":"95.438","MEAN_MOTION_DDOT":"0.0000000000000","MEAN_MOTION_DOT":"0.00000265","REF_FRAME":"TEME","ELEMENT_SET_NO":"999","SITE":"AFWTR"},{"TLE_LINE2":"2 52556  53.2164 263.6429 0002611  98.2703 261.8587 15.11222881 37588","APOAPSIS":"534.276","MEAN_ANOMALY":"261.8587","PERIOD":"95.287","MEAN_MOTION_DDOT":"0.0000000000000","MEAN_MOTION_DOT":"0.00020725","REF_FRAME":"TEME","ELEMENT_SET_NO":"999","SITE":"AFWTR","RCS_SIZE":"LARGE","EPHEMERIS_TYPE":"0","TLE_LINE1":"1 52556U 22051Z   23012.98806818  .00020725  00000-0  12332-2 0  9998","RA_OF_ASC_NODE":"263.6429","BSTAR":"0.00123320000000","DECAY_DATE":null,"INCLINATION":"53.2164","LAUNCH_DATE":"2022-05-13","REV_AT_EPOCH":"3758","CLASSIFICATION_TYPE":"U","TIME_SYSTEM":"UTC","ECCENTRICITY":"0.00026110","OBJECT_ID":"2022-051Z","EPOCH":"2023-01-12T23:42:49.090752","MEAN_ELEMENT_THEORY":"SGP4","GP_ID":"222865207","PERIAPSIS":"530.667","MEAN_MOTION":"15.11222881","SEMIMAJOR_AXIS":"6910.606","CENTER_NAME":"EARTH","FILE":"3742128","NORAD_CAT_ID":"52556","OBJECT_TYPE":"PAYLOAD","OBJECT_NAME":"STARLINK-3763","ARG_OF_PERICENTER":"98.2703","COUNTRY_CODE":"US"},{"DECAY_DATE":null,"BSTAR":"0.00098223000000","RA_OF_ASC_NODE":"259.5593","TLE_LINE1":"1 52557U 22051AA  23012.93508308  .00015377  00000-0  98223-3 0  9998","EPHEMERIS_TYPE":"0","RCS_SIZE":"LARGE","SITE":"AFWTR","ELEMENT_SET_NO":"999","REF_FRAME":"TEME","MEAN_MOTION_DOT":"0.00015377","MEAN_MOTION_DDOT":"0.0000000000000","APOAPSIS":"540.933","MEAN_ANOMALY":"307.3905","PERIOD":"95.438","TLE_LINE2":"2 52557  53.2125 259.5593 0001696  52.7242 307.3905 15.08835379 37574","COUNTRY_CODE":"US","ARG_OF_PERICENTER":"52.7242","OBJECT_NAME":"STARLINK-3943","OBJECT_TYPE":"PAYLOAD","NORAD_CAT_ID":"52557","FILE":"3742227","CENTER_NAME":"EARTH","MEAN_MOTION":"15.08835379","SEMIMAJOR_AXIS":"6917.895","PERIAPSIS":"538.586","GP_ID":"222891365","EPOCH":"2023-01-12T22:26:31.178112","MEAN_ELEMENT_THEORY":"SGP4","OBJECT_ID":"2022-051AA","ECCENTRICITY":"0.00016960","TIME_SYSTEM":"UTC","CLASSIFICATION_TYPE":"U","LAUNCH_DATE":"2022-05-13","REV_AT_EPOCH":"3757","INCLINATION":"53.2125"},{"EPHEMERIS_TYPE":"0","RCS_SIZE":"LARGE","TLE_LINE1":"1 52558U 22051AB  23012.93600138  .00002002  00000-0  14385-3 0  9991","RA_OF_ASC_NODE":"249.5444","DECAY_DATE":null,"BSTAR":"0.00014385000000","TLE_LINE2":"2 52558  53.2142 249.5444 0001924  75.5871 284.5335 15.08843859 37703","MEAN_MOTION_DDOT":"0.0000000000000","APOAPSIS":"541.065","PERIOD":"95.437","MEAN_ANOMALY":"284.5335","REF_FRAME":"TEME","MEAN_MOTION_DOT":"0.00002002","SITE":"AFWTR","ELEMENT_SET_NO":"999","GP_ID":"222891613","MEAN_MOTION":"15.08843859","SEMIMAJOR_AXIS":"6917.869","PERIAPSIS":"538.403","OBJECT_TYPE":"PAYLOAD","FILE":"3742227","NORAD_CAT_ID":"52558","CENTER_NAME":"EARTH","COUNTRY_CODE":"US","ARG_OF_PERICENTER":"75.5871","OBJECT_NAME":"STARLINK-3954","CLASSIFICATION_TYPE":"U","REV_AT_EPOCH":"3770","LAUNCH_DATE":"2022-05-13","INCLINATION":"53.2142","ECCENTRICITY":"0.00019240","TIME_SYSTEM":"UTC","EPOCH":"2023-01-12T22:27:50.519232","MEAN_ELEMENT_THEORY":"SGP4","OBJECT_ID":"2022-051AB"},{"TLE_LINE2":"2 52559  53.2155 249.5763 0001723  56.0383 304.0773 15.08839660 37700","MEAN_MOTION_DDOT":"0.0000000000000","PERIOD":"95.438","APOAPSIS":"540.938","MEAN_ANOMALY":"304.0773","REF_FRAME":"TEME","MEAN_MOTION_DOT":"0.00002523","SITE":"AFWTR","ELEMENT_SET_NO":"999","RCS_SIZE":"LARGE","EPHEMERIS_TYPE":"0","TLE_LINE1":"1 52559U 22051AC  23012.92959862  .00002523  00000-0  17656-3 0  9994","RA_OF_ASC_NODE":"249.5763","DECAY_DATE":null,"BSTAR":"0.00017656000000","LAUNCH_DATE":"2022-05-13","INCLINATION":"53.2155","REV_AT_EPOCH":"3770","CLASSIFICATION_TYPE":"U","TIME_SYSTEM":"UTC","ECCENTRICITY":"0.00017230","OBJECT_ID":"2022-051AC","EPOCH":"2023-01-12T22:18:37.320768","MEAN_ELEMENT_THEORY":"SGP4","GP_ID":"222890365","PERIAPSIS":"538.554","SEMIMAJOR_AXIS":"6917.881","MEAN_MOTION":"15.08839660","NORAD_CAT_ID":"52559","FILE":"3742227","OBJECT_TYPE":"PAYLOAD","CENTER_NAME":"EARTH","ARG_OF_PERICENTER":"56.0383","COUNTRY_CODE":"US","OBJECT_NAME":"STARLINK-3953"},{"CENTER_NAME":"EARTH","OBJECT_TYPE":"PAYLOAD","FILE":"3742227","NORAD_CAT_ID":"52560","OBJECT_NAME":"STARLINK-3956","COUNTRY_CODE":"US","ARG_OF_PERICENTER":"58.8632","GP_ID":"222890615","MEAN_MOTION":"15.08833985","SEMIMAJOR_AXIS":"6917.899","PERIAPSIS":"538.641","TIME_SYSTEM":"UTC","ECCENTRICITY":"0.00016230","EPOCH":"2023-01-12T22:22:32.362464","MEAN_ELEMENT_THEORY":"SGP4","OBJECT_ID":"2022-051AD","CLASSIFICATION_TYPE":"U","LAUNCH_DATE":"2022-05-13","INCLINATION":"53.2156","REV_AT_EPOCH":"3770","RA_OF_ASC_NODE":"249.5630","BSTAR":"0.00004111700000","DECAY_DATE":null,"EPHEMERIS_TYPE":"0","RCS_SIZE":"LARGE","TLE_LINE1":"1 52560U 22051AD  23012.93231901  .00000366  00000-0  41117-4 0  9997","MEAN_MOTION_DOT":"0.00000366","REF_FRAME":"TEME","ELEMENT_SET_NO":"999","SITE":"AFWTR","TLE_LINE2":"2 52560  53.2156 249.5630 0001623  58.8632 301.2519 15.08833985 37703","APOAPSIS":"540.887","PERIOD":"95.438","MEAN_ANOMALY":"301.2519","MEAN_MOTION_DDOT":"0.0000000000000"},{"TLE_LINE1":"1 52561U 22051AE  23012.91438086 -.00006346  00000-0 -38119-3 0  9992","EPHEMERIS_TYPE":"0","RCS_SIZE":"LARGE","BSTAR":"-0.00038119000000","DECAY_DATE":null,"RA_OF_ASC_NODE":"264.6477","APOAPSIS":"541.677","MEAN_ANOMALY":"330.5541","PERIOD":"95.439","MEAN_MOTION_DDOT":"0.0000000000000","TLE_LINE2":"2 52561  53.2145 264.6477 0002683  29.5603 330.5541 15.08815437 37497","ELEMENT_SET_NO":"999","SITE":"AFWTR","MEAN_MOTION_DOT":"-0.00006346","REF_FRAME":"TEME","MEAN_MOTION":"15.08815437","SEMIMAJOR_AXIS":"6917.955","PERIAPSIS":"537.964","GP_ID":"222890866","OBJECT_NAME":"STARLINK-3955","COUNTRY_CODE":"US","ARG_OF_PERICENTER":"29.5603","CENTER_NAME":"EARTH","OBJECT_TYPE":"PAYLOAD","NORAD_CAT_ID":"52561","FILE":"3742227","CLASSIFICATION_TYPE":"U","LAUNCH_DATE":"2022-05-13","INCLINATION":"53.2145","REV_AT_EPOCH":"3749","MEAN_ELEMENT_THEORY":"SGP4","EPOCH":"2023-01-12T21:56:42.506304","OBJECT_ID":"2022-051AE","TIME_SYSTEM":"UTC","ECCENTRICITY":"0.00026830"},{"MEAN_MOTION_DOT":"0.00001477","REF_FRAME":"TEME","ELEMENT_SET_NO":"999","SITE":"AFWTR","TLE_LINE2":"2 52562  53.2175 249.5972 0001898  45.5299 314.5848 15.08842628 37707","PERIOD":"95.437","APOAPSIS":"541.050","MEAN_ANOMALY":"314.5848","MEAN_MOTION_DDOT":"0.0000000000000","RA_OF_ASC_NODE":"249.5972","BSTAR":"0.00011086000000","DECAY_DATE":null,"RCS_SIZE":"LARGE","EPHEMERIS_TYPE":"0","TLE_LINE1":"1 52562U 22051AF  23012.92496320  .00001477  00000-0  11086-3 0  9991","TIME_SYSTEM":"UTC","ECCENTRICITY":"0.00018980","OBJECT_ID":"2022-051AF","EPOCH":"2023-01-12T22:11:56.820480","MEAN_ELEMENT_THEORY":"SGP4","LAUNCH_DATE":"2022-05-13","REV_AT_EPOCH":"3770","INCLINATION":"53.2175","CLASSIFICATION_TYPE":"U","CENTER_NAME":"EARTH","NORAD_CAT_ID":"52562","FILE":"3742227","OBJECT_TYPE":"PAYLOAD","OBJECT_NAME":"STARLINK-3957","ARG_OF_PERICENTER":"45.5299","COUNTRY_CODE":"US","GP_ID":"222891114","PERIAPSIS":"538.424","SEMIMAJOR_AXIS":"6917.872","MEAN_MOTION":"15.08842628"},{"TLE_LINE2":"2 52563  53.2149 264.6278 0001945  48.6773 311.4386 15.08833315 37492","MEAN_MOTION_DDOT":"0.0000000000000","APOAPSIS":"541.111","MEAN_ANOMALY":"311.4386","PERIOD":"95.438","REF_FRAME":"TEME","MEAN_MOTION_DOT":"0.00001661","SITE":"AFWTR","ELEMENT_SET_NO":"999","EPHEMERIS_TYPE":"0","RCS_SIZE":"LARGE","TLE_LINE1":"1 52563U 22051AG  23012.91805795  .00001661  00000-0  12245-3 0  9994","RA_OF_ASC_NODE":"264.6278","DECAY_DATE":null,"BSTAR":"0.00012245000000","CLASSIFICATION_TYPE":"U","REV_AT_EPOCH":"3749","LAUNCH_DATE":"2022-05-13","INCLINATION":"53.2149","ECCENTRICITY":"0.00019450","TIME_SYSTEM":"UTC","EPOCH":"2023-01-12T22:02:00.206880","MEAN_ELEMENT_THEORY":"SGP4","OBJECT_ID":"2022-051AG","GP_ID":"222889866","MEAN_MOTION":"15.08833315","SEMIMAJOR_AXIS":"6917.901","PERIAPSIS":"538.420","OBJECT_TYPE":"PAYLOAD","FILE":"3742227","NORAD_CAT_ID":"52563","CENTER_NAME":"EARTH","COUNTRY_CODE":"US","ARG_OF_PERICENTER":"48.6773","OBJECT_NAME":"STARLINK-3942"}];
